[{"OBJECT_NAME":"STARLINK-30505","OBJECT_ID":"2023-151J","EPOCH":"2026-03-08T02:51:45.258912","MEAN_MOTION":15.26785781,"ECCENTRICITY":0.00016319,"INCLINATION":43.0004,"RA_OF_ASC_NODE":345.0806,"ARG_OF_PERICENTER":252.0236,"MEAN_ANOMALY":108.0438,"EPHEMERIS_TYPE":0,"CLASSIFICATION_TYPE":"U","NORAD_CAT_ID":57972,"ELEMENT_SET_NO":999,"REV_AT_EPOCH":13552,"BSTAR":0.0013307698,"MEAN_MOTION_DOT":0.00035659,"MEAN_MOTION_DDOT":0},{"OBJECT_NAME":"OBJECT A","OBJECT_ID":"2024-203A","EPOCH":"2026-03-09T23:31:20.812800","MEAN_MOTION":15.27300571,"ECCENTRICITY":0.00108989,"INCLINATION":97.4288,"RA_OF_ASC_NODE":139.5608,"ARG_OF_PERICENTER":322.6893,"MEAN_ANOMALY":37.3588,"EPHEMERIS_TYPE":0,"CLASSIFICATION_TYPE":"U","NORAD_CAT_ID":61869,"ELEMENT_SET_NO":999,"REV_AT_EPOCH":7380,"BSTAR":0.00061472876,"MEAN_MOTION_DOT":0.00016411,"MEAN_MOTION_DDOT":0}]
